{"type": "FeatureCollection", "features": [ {"type": "Feature", "properties": {"norad_id": 37550, "name": "IRIDIUM 33 DEB", "group": "iridium-33-debris", "lat": 85.86482450202972, "lon": 145.37104393833224, "alt_km": 659.7594663507844, "timestamp": "2025-12-06T16:45:43.106997+00:00", "meta": {"OBJECT_NAME": "IRIDIUM 33 DEB", "OBJECT_ID": "1997-051XK", "EPOCH": "2025-12-05T20:42:02.284416", "MEAN_MOTION": 14.67065743, "ECCENTRICITY": 0.00052853, "INCLINATION": 86.3779, "RA_OF_ASC_NODE": 26.9229, "ARG_OF_PERICENTER": 126.8629, "MEAN_ANOMALY": 233.3071, "EPHEMERIS_TYPE": 0, "CLASSIFICATION_TYPE": "U", "NORAD_CAT_ID": 37550, "ELEMENT_SET_NO": 999, "REV_AT_EPOCH": 86232, "BSTAR": 0.0021067494, "MEAN_MOTION_DOT": 0.00011852, "MEAN_MOTION_DDOT": 0}, "tle": {"line1": "1 37550U 97051XK  25339.86252644  .00011852  00000+0  21067-2 0  9995", "line2": "2 37550  86.3779  26.9229 0005285 126.8629 233.3071 14.67065743862329"}}, "geometry": {"type": "Point", "coordinates": [145.37104393833224, 85.86482450202972]}}, {"type": "Feature", "properties": {"norad_id": 37562, "name": "IRIDIUM 33 DEB", "group": "iridium-33-debris", "lat": 6.296214193945129, "lon": -134.16553649895533, "alt_km": 694.1751721718192, "timestamp": "2025-12-06T16:45:43.107010+00:00", "meta": {"OBJECT_NAME": "IRIDIUM 33 DEB", "OBJECT_ID": "1997-051XX", "EPOCH": "2025-12-05T22:38:16.769760", "MEAN_MOTION": 14.56376175, "ECCENTRICITY": 0.00266622, "INCLINATION": 86.3751, "RA_OF_ASC_NODE": 46.5643, "ARG_OF_PERICENTER": 129.1222, "MEAN_ANOMALY": 47.463, "EPHEMERIS_TYPE": 0, "CLASSIFICATION_TYPE": "U", "NORAD_CAT_ID": 37562, "ELEMENT_SET_NO": 999, "REV_AT_EPOCH": 86229, "BSTAR": 0.0018491974, "MEAN_MOTION_DOT": 8.263e-05, "MEAN_MOTION_DDOT": 0}, "tle": {"line1": "1 37562U 97051XX  25339.94324965  .00008263  00000+0  18492-2 0  9993", "line2": "2 37562  86.3751  46.5643 0026662 129.1222  47.4630 14.56376175862290"}}, "geometry": {"type": "Point", "coordinates": [-134.16553649895533, 6.296214193945129]}}, {"type": "Feature", "properties": {"norad_id": 37565, "name": "IRIDIUM 33 DEB", "group": "iridium-33-debris", "lat": 60.84318404109644, "lon": 18.780764918042596, "alt_km": 706.6626572749092, "timestamp": "2025-12-06T16:45:43.107020+00:00", "meta": {"OBJECT_NAME": "IRIDIUM 33 DEB", "OBJECT_ID": "1997-051YA", "EPOCH": "2025-12-04T19:48:32.546880", "MEAN_MOTION": 14.51466932, "ECCENTRICITY": 0.0015217, "INCLINATION": 86.3499, "RA_OF_ASC_NODE": 13.026, "ARG_OF_PERICENTER": 107.0508, "MEAN_ANOMALY": 253.2366, "EPHEMERIS_TYPE": 0, "CLASSIFICATION_TYPE": "U", "NORAD_CAT_ID": 37565, "ELEMENT_SET_NO": 999, "REV_AT_EPOCH": 65722, "BSTAR": 0.001129, "MEAN_MOTION_DOT": 4.535e-05, "MEAN_MOTION_DDOT": 0}, "tle": {"line1": "1 37565U 97051YA  25338.82537670  .00004535  00000+0  11290-2 0  9998", "line2": "2 37565  86.3499  13.0260 0015217 107.0508 253.2366 14.51466932657226"}}, "geometry": {"type": "Point", "coordinates": [18.780764918042596, 60.84318404109644]}}, {"type": "Feature", "properties": {"norad_id": 38017, "name": "IRIDIUM 33 DEB", "group": "iridium-33-debris", "lat": -28.34344946830432, "lon": -9.174723233143938, "alt_km": 729.3580359496673, "timestamp": "2025-12-06T16:45:43.107031+00:00", "meta": {"OBJECT_NAME": "IRIDIUM 33 DEB", "OBJECT_ID": "1997-051YD", "EPOCH": "2025-12-01T06:29:11.103360", "MEAN_MOTION": 14.48304289, "ECCENTRICITY": 0.009214, "INCLINATION": 86.3439, "RA_OF_ASC_NODE": 171.2047, "ARG_OF_PERICENTER": 141.8586, "MEAN_ANOMALY": 218.9187, "EPHEMERIS_TYPE": 0, "CLASSIFICATION_TYPE": "U", "NORAD_CAT_ID": 38017, "ELEMENT_SET_NO": 999, "REV_AT_EPOCH": 61236, "BSTAR": 0.0066574, "MEAN_MOTION_DOT": 0.00026341, "MEAN_MOTION_DDOT": 0}, "tle": {"line1": "1 38017U 97051YD  25335.27026740  .00026341  00000+0  66574-2 0  9992", "line2": "2 38017  86.3439 171.2047 0092140 141.8586 218.9187 14.48304289612362"}}, "geometry": {"type": "Point", "coordinates": [-9.174723233143938, -28.34344946830432]}}, {"type": "Feature", "properties": {"norad_id": 38022, "name": "IRIDIUM 33 DEB", "group": "iridium-33-debris", "lat": 24.88407859688434, "lon": -162.64379605065855, "alt_km": 751.3151792300841, "timestamp": "2025-12-06T16:45:43.107041+00:00", "meta": {"OBJECT_NAME": "IRIDIUM 33 DEB", "OBJECT_ID": "1997-051YJ", "EPOCH": "2025-12-03T09:43:50.752992", "MEAN_MOTION": 14.41155819, "ECCENTRICITY": 0.00470517, "INCLINATION": 86.2701, "RA_OF_ASC_NODE": 20.531, "ARG_OF_PERICENTER": 80.0356, "MEAN_ANOMALY": 280.615, "EPHEMERIS_TYPE": 0, "CLASSIFICATION_TYPE": "U", "NORAD_CAT_ID": 38022, "ELEMENT_SET_NO": 999, "REV_AT_EPOCH": 69059, "BSTAR": 0.0013840286, "MEAN_MOTION_DOT": 4.54e-05, "MEAN_MOTION_DDOT": 0}, "tle": {"line1": "1 38022U 97051YJ  25337.40544853  .00004540  00000+0  13840-2 0  9990", "line2": "2 38022  86.2701  20.5310 0047051  80.0356 280.6150 14.41155819690591"}}, "geometry": {"type": "Point", "coordinates": [-162.64379605065855, 24.88407859688434]}}, {"type": "Feature", "properties": {"norad_id": 38028, "name": "IRIDIUM 33 DEB", "group": "iridium-33-debris", "lat": -11.002296647653214, "lon": -176.3877631173248, "alt_km": 729.2413366525452, "timestamp": "2025-12-06T16:45:43.107051+00:00", "meta": {"OBJECT_NAME": "IRIDIUM 33 DEB", "OBJECT_ID": "1997-051YQ", "EPOCH": "2025-12-05T08:19:56.011584", "MEAN_MOTION": 14.46161527, "ECCENTRICITY": 0.00297993, "INCLINATION": 86.3272, "RA_OF_ASC_NODE": 3.4836, "ARG_OF_PERICENTER": 144.2247, "MEAN_ANOMALY": 216.0959, "EPHEMERIS_TYPE": 0, "CLASSIFICATION_TYPE": "U", "NORAD_CAT_ID": 38028, "ELEMENT_SET_NO": 999, "REV_AT_EPOCH": 65388, "BSTAR": 0.00052415239, "MEAN_MOTION_DOT": 1.903e-05, "MEAN_MOTION_DDOT": 0}, "tle": {"line1": "1 38028U 97051YQ  25339.34717606  .00001903  00000+0  52415-3 0  9991", "line2": "2 38028  86.3272   3.4836 0029799 144.2247 216.0959 14.46161527653884"}}, "geometry": {"type": "Point", "coordinates": [-176.3877631173248, -11.002296647653214]}}, {"type": "Feature", "properties": {"norad_id": 38228, "name": "IRIDIUM 33 DEB", "group": "iridium-33-debris", "lat": 4.933123156348827, "lon": -129.2824315209028, "alt_km": 765.4602146790694, "timestamp": "2025-12-06T16:45:43.107061+00:00", "meta": {"OBJECT_NAME": "IRIDIUM 33 DEB", "OBJECT_ID": "1997-051ZC", "EPOCH": "2025-12-05T11:24:42.525216", "MEAN_MOTION": 14.27249684, "ECCENTRICITY": 0.0063511, "INCLINATION": 86.2953, "RA_OF_ASC_NODE": 51.5576, "ARG_OF_PERICENTER": 213.0073, "MEAN_ANOMALY": 162.7695, "EPHEMERIS_TYPE": 0, "CLASSIFICATION_TYPE": "U", "NORAD_CAT_ID": 38228, "ELEMENT_SET_NO": 999, "REV_AT_EPOCH": 84678, "BSTAR": 0.00063038661, "MEAN_MOTION_DOT": 1.592e-05, "MEAN_MOTION_DDOT": 0}, "tle": {"line1": "1 38228U 97051ZC  25339.47549219  .00001592  00000+0  63039-3 0  9998", "line2": "2 38228  86.2953  51.5576 0063511 213.0073 162.7695 14.27249684846785"}}, "geometry": {"type": "Point", "coordinates": [-129.2824315209028, 4.933123156348827]}}, {"type": "Feature", "properties": {"norad_id": 38241, "name": "IRIDIUM 33 DEB", "group": "iridium-33-debris", "lat": -38.13382807667942, "lon": 176.158747003425, "alt_km": 719.2856352988565, "timestamp": "2025-12-06T16:45:43.107071+00:00", "meta": {"OBJECT_NAME": "IRIDIUM 33 DEB", "OBJECT_ID": "1997-051ZR", "EPOCH": "2025-12-05T18:18:10.298016", "MEAN_MOTION": 14.54799988, "ECCENTRICITY": 0.00056722, "INCLINATION": 86.3224, "RA_OF_ASC_NODE": 353.6772, "ARG_OF_PERICENTER": 87.2865, "MEAN_ANOMALY": 272.8992, "EPHEMERIS_TYPE": 0, "CLASSIFICATION_TYPE": "U", "NORAD_CAT_ID": 38241, "ELEMENT_SET_NO": 999, "REV_AT_EPOCH": 60099, "BSTAR": 0.0014749391, "MEAN_MOTION_DOT": 6.345e-05, "MEAN_MOTION_DDOT": 0}, "tle": {"line1": "1 38241U 97051ZR  25339.76261919  .00006345  00000+0  14749-2 0  9997", "line2": "2 38241  86.3224 353.6772 0005672  87.2865 272.8992 14.54799988600991"}}, "geometry": {"type": "Point", "coordinates": [176.158747003425, -38.13382807667942]}}, {"type": "Feature", "properties": {"norad_id": 38474, "name": "IRIDIUM 33 DEB", "group": "iridium-33-debris", "lat": 80.90256814585031, "lon": 36.23335565328627, "alt_km": 698.0909391343748, "timestamp": "2025-12-06T16:45:43.107082+00:00", "meta": {"OBJECT_NAME": "IRIDIUM 33 DEB", "OBJECT_ID": "1997-051AAB", "EPOCH": "2025-12-05T20:31:18.420384", "MEAN_MOTION": 14.50647006, "ECCENTRICITY": 0.00280558, "INCLINATION": 86.3432, "RA_OF_ASC_NODE": 13.0613, "ARG_OF_PERICENTER": 109.3616, "MEAN_ANOMALY": 251.0626, "EPHEMERIS_TYPE": 0, "CLASSIFICATION_TYPE": "U", "NORAD_CAT_ID": 38474, "ELEMENT_SET_NO": 999, "REV_AT_EPOCH": 65218, "BSTAR": 0.0010134267, "MEAN_MOTION_DOT": 4.017e-05, "MEAN_MOTION_DDOT": 0}, "tle": {"line1": "1 38474U 97051AAB 25339.85507431  .00004017  00000+0  10134-2 0  9995", "line2": "2 38474  86.3432  13.0613 0028055 109.3616 251.0626 14.50647006652181"}}, "geometry": {"type": "Point", "coordinates": [36.23335565328627, 80.90256814585031]}}, {"type": "Feature", "properties": {"norad_id": 39777, "name": "IRIDIUM 33 DEB", "group": "iridium-33-debris", "lat": 5.731758913728305, "lon": 178.38076100326762, "alt_km": 747.0150899309856, "timestamp": "2025-12-06T16:45:43.107092+00:00", "meta": {"OBJECT_NAME": "IRIDIUM 33 DEB", "OBJECT_ID": "1997-051AAJ", "EPOCH": "2025-12-06T00:14:36.412224", "MEAN_MOTION": 14.5619016, "ECCENTRICITY": 0.00596608, "INCLINATION": 85.9622, "RA_OF_ASC_NODE": 178.3085, "ARG_OF_PERICENTER": 209.6605, "MEAN_ANOMALY": 150.1216, "EPHEMERIS_TYPE": 0, "CLASSIFICATION_TYPE": "U", "NORAD_CAT_ID": 39777, "ELEMENT_SET_NO": 999, "REV_AT_EPOCH": 60087, "BSTAR": 0.0037764101, "MEAN_MOTION_DOT": 0.00017134, "MEAN_MOTION_DDOT": 0}, "tle": {"line1": "1 39777U 97051AAJ 25340.01014366  .00017134  00000+0  37764-2 0  9994", "line2": "2 39777  85.9622 178.3085 0059660 209.6605 150.1216 14.56190160600873"}}, "geometry": {"type": "Point", "coordinates": [178.38076100326762, 5.731758913728305]}}]}